[{"OBJECT_NAME":"STARLINK-5076","OBJECT_ID":"2023-014L","EPOCH":"2026-03-09T09:36:37.841472","MEAN_MOTION":14.98331588,"ECCENTRICITY":0.0003253,"INCLINATION":69.9994,"RA_OF_ASC_NODE":65.1236,"ARG_OF_PERICENTER":266.6274,"MEAN_ANOMALY":93.4513,"EPHEMERIS_TYPE":0,"CLASSIFICATION_TYPE":"U","NORAD_CAT_ID":55401,"ELEMENT_SET_NO":999,"REV_AT_EPOCH":17201,"BSTAR":7.071e-7,"MEAN_MOTION_DOT":-8.5e-7,"MEAN_MOTION_DDOT":0},{"OBJECT_NAME":"PEGASUS DEB","OBJECT_ID":"1994-029ADZ","EPOCH":"2026-03-09T09:44:41.678880","MEAN_MOTION":14.71787317,"ECCENTRICITY":0.01294019,"INCLINATION":81.9867,"RA_OF_ASC_NODE":205.808,"ARG_OF_PERICENTER":256.1704,"MEAN_ANOMALY":159.4284,"EPHEMERIS_TYPE":0,"CLASSIFICATION_TYPE":"U","NORAD_CAT_ID":25445,"ELEMENT_SET_NO":999,"REV_AT_EPOCH":52180,"BSTAR":0.00051371535,"MEAN_MOTION_DOT":3.68e-5,"MEAN_MOTION_DDOT":0}]
